NORAD_CAT_ID,OBJECT_NAME,OBJECT_TYPE,EPOCH,MEAN_MOTION,ECCENTRICITY,INCLINATION,RA_OF_ASC_NODE,ARG_OF_PERICENTER,MEAN_ANOMALY,BSTAR,MEAN_MOTION_DOT,MEAN_MOTION_DDOT,TLE_LINE0,TLE_LINE1,TLE_LINE2,SEMIMAJOR_AXIS,PERIOD,APOGEE,PERIGEE,DECAYED
54774.0,STARLINK-5454,PAYLOAD,2024-01-28 21:59:58,15.08843276,0.0001229,53.2153,248.937,88.8174,271.2959,1.162e-05,-1.03e-06,0.0,0 STARLINK-5454,1 54774U 22175S   24028.91665474 -.00000103  00000-0  11620-4 0  9991,2 54774  53.2153 248.9370 0001229  88.8174 271.2959 15.08843276 63773,6917.87,95.437,540.586,538.885,0.0
54774.0,STARLINK-5454,PAYLOAD,2024-01-29 01:10:45,15.08844072,0.0001244,53.2153,248.3411,97.3913,262.7221,2.0186e-05,3.3e-07,0.0,0 STARLINK-5454,1 54774U 22175S   24029.04913353  .00000033  00000-0  20186-4 0  9996,2 54774  53.2153 248.3411 0001244  97.3913 262.7221 15.08844072 61631,6917.868,95.437,540.594,538.872,0.0
54774.0,STARLINK-5454,PAYLOAD,2024-01-29 23:26:09,15.08837708,0.000132,53.2146,244.1782,148.7717,211.3353,1.5058e-06,-2.64e-06,0.0,0 STARLINK-5454,1 54774U 22175S   24029.97649376 -.00000264  00000-0  15058-5 0  9999,2 54774  53.2146 244.1782 0001320 148.7717 211.3353 15.08837708 61775,6917.887,95.438,540.666,538.839,0.0
54774.0,STARLINK-5454,PAYLOAD,2024-01-30 20:06:10,15.08841782,0.0001401,53.2161,240.3117,85.0404,275.0748,-9.7367e-06,-4.43e-06,0.0,0 STARLINK-5454,1 54774U 22175S   24030.83761661 -.00000443  00000-0 -97367-5 0  9991,2 54774  53.2161 240.3117 0001401  85.0404 275.0748 15.08841782 64065,6917.875,95.437,540.709,538.771,0.0
54774.0,STARLINK-5454,PAYLOAD,2024-01-31 13:35:24,15.08838388,0.0001467,53.2158,237.0425,90.7462,269.3698,-2.5013e-05,-6.86e-06,0.0,0 STARLINK-5454,1 54774U 22175S   24031.56625855 -.00000686  00000-0 -25013-4 0  9993,2 54774  53.2158 237.0425 0001467  90.7462 269.3698 15.08838388 64175,6917.885,95.438,540.765,538.735,0.0
54774.0,STARLINK-5454,PAYLOAD,2024-02-01 19:47:44,15.08838663,0.0001499,53.2165,231.3919,84.7874,275.3289,2.4009e-05,9.4e-07,0.0,0 STARLINK-5454,1 54774U 22175S   24032.82481742  .00000094  00000-0  24009-4 0  9993,2 54774  53.2165 231.3919 0001499  84.7874 275.3289 15.08838663 62204,6917.884,95.438,540.786,538.712,0.0
54774.0,STARLINK-5454,PAYLOAD,2024-02-01 22:58:30,15.08838901,0.0001471,53.2161,230.7956,81.8271,278.2888,3.0994e-05,2.05e-06,0.0,0 STARLINK-5454,1 54774U 22175S   24032.95729697  .00000205  00000-0  30994-4 0  9995,2 54774  53.2161 230.7956 0001471  81.8271 278.2888 15.08838901 64386,6917.884,95.438,540.766,538.731,0.0
54774.0,STARLINK-5454,PAYLOAD,2024-02-02 18:03:08,15.08836673,0.0001313,53.216,227.2268,86.4807,273.6335,6.2604e-06,-1.88e-06,0.0,0 STARLINK-5454,1 54774U 22175S   24033.75217933 -.00000188  00000-0  62604-5 0  9994,2 54774  53.2160 227.2268 0001313  86.4807 273.6335 15.08836673 64507,6917.891,95.438,540.664,538.847,0.0
54774.0,STARLINK-5454,PAYLOAD,2024-02-02 22:49:17,15.08836968,0.0001322,53.216,226.3347,86.4405,273.6738,8.0067e-06,-1.6e-06,0.0,0 STARLINK-5454,1 54774U 22175S   24033.95089927 -.00000160  00000-0  80067-5 0  9999,2 54774  53.2160 226.3347 0001322  86.4405 273.6738 15.08836968 62376,6917.89,95.438,540.669,538.84,0.0
54774.0,STARLINK-5454,PAYLOAD,2024-02-03 13:07:46,15.08835144,0.0001343,53.216,223.6579,83.7534,276.3611,-4.0102e-05,-9.26e-06,0.0,0 STARLINK-5454,1 54774U 22175S   24034.54706385 -.00000926  00000-0 -40102-4 0  9995,2 54774  53.2160 223.6579 0001343  83.7534 276.3611 15.08835144 64624,6917.895,95.438,540.689,538.831,0.0
54774.0,STARLINK-5454,PAYLOAD,2024-02-03 19:29:18,15.08837113,0.0001275,53.2158,222.4687,85.5298,274.584,-2.4416e-05,-6.76e-06,0.0,0 STARLINK-5454,1 54774U 22175S   24034.81202237 -.00000676  00000-0 -24416-4 0  9994,2 54774  53.2158 222.4687 0001275  85.5298 274.5840 15.08837113 64665,6917.889,95.438,540.636,538.872,0.0
54774.0,STARLINK-5454,PAYLOAD,2024-02-04 12:58:33,15.08835177,0.0001264,53.2159,219.1978,85.7881,274.3255,1.1613e-05,-1.03e-06,0.0,0 STARLINK-5454,1 54774U 22175S   24035.54066362 -.00000103  00000-0  11613-4 0  9991,2 54774  53.2159 219.1978 0001264  85.7881 274.3255 15.08835177 62619,6917.895,95.438,540.635,538.886,0.0
54774.0,STARLINK-5454,PAYLOAD,2024-02-04 17:44:42,15.08837493,0.000127,53.216,218.3061,88.2314,271.8824,2.6642e-05,1.36e-06,0.0,0 STARLINK-5454,1 54774U 22175S   24035.73938189  .00000136  00000-0  26642-4 0  9990,2 54774  53.2160 218.3061 0001270  88.2314 271.8824 15.08837493 64801,6917.888,95.438,540.632,538.874,0.0
54774.0,STARLINK-5454,PAYLOAD,2024-02-05 04:52:24,15.08837693,0.000127,53.2162,216.2247,88.5073,271.6065,3.9463e-05,3.4e-06,0.0,0 STARLINK-5454,1 54774U 22175S   24036.20306177  .00000340  00000-0  39463-4 0  9991,2 54774  53.2162 216.2247 0001270  88.5073 271.6065 15.08837693 64875,6917.887,95.438,540.631,538.874,0.0
54774.0,STARLINK-5454,PAYLOAD,2024-02-05 19:10:52,15.08839935,0.0001268,53.2162,213.5489,90.4233,269.6904,4.9058e-05,4.93e-06,0.0,0 STARLINK-5454,1 54774U 22175S   24036.79922057  .00000493  00000-0  49058-4 0  9996,2 54774  53.2162 213.5489 0001268  90.4233 269.6904 15.08839935 62801,6917.881,95.438,540.623,538.868,0.0
54774.0,STARLINK-5454,PAYLOAD,2024-02-06 14:15:30,15.08841779,0.000127,53.215,209.9791,89.7481,270.3656,9.239e-06,-1.41e-06,0.0,0 STARLINK-5454,1 54774U 22175S   24037.59410059 -.00000141  00000-0  92390-5 0  9998,2 54774  53.2150 209.9791 0001270  89.7481 270.3656 15.08841779 65087,6917.875,95.437,540.619,538.861,0.0
54774.0,STARLINK-5454,PAYLOAD,2024-02-06 22:12:25,15.08846822,0.0001252,53.2154,208.4926,87.2769,272.8367,5.0253e-05,5.12e-06,0.0,0 STARLINK-5454,1 54774U 22175S   24037.92529521  .00000512  00000-0  50253-4 0  9992,2 54774  53.2154 208.4926 0001252  87.2769 272.8367 15.08846822 65133,6917.86,95.437,540.591,538.858,0.0
54774.0,STARLINK-5454,PAYLOAD,2024-02-06 23:47:48,15.08848421,0.0001251,53.2154,208.195,90.509,269.6045,7.3188e-05,8.77e-06,0.0,0 STARLINK-5454,1 54774U 22175S   24037.99153293  .00000877  00000-0  73188-4 0  9994,2 54774  53.2154 208.1950 0001251  90.5090 269.6045 15.08848421 62984,6917.855,95.437,540.585,538.854,0.0
54774.0,STARLINK-5454,PAYLOAD,2024-02-07 12:30:54,15.08837564,0.000145,53.215,205.815,100.1005,260.0151,-1.3571e-05,-5.04e-06,0.0,0 STARLINK-5454,1 54774U 22175S   24038.52146253 -.00000504  00000-0 -13571-4 0  9991,2 54774  53.2150 205.8150 0001450 100.1005 260.0151 15.08837564 63060,6917.888,95.438,540.756,538.75,0.0
54774.0,STARLINK-5454,PAYLOAD,2024-02-07 14:06:17,15.08838985,0.0001314,53.2154,205.518,99.4864,260.6276,-6.1181e-06,-3.85e-06,0.0,0 STARLINK-5454,1 54774U 22175S   24038.58770147 -.00000385  00000-0 -61181-5 0  9990,2 54774  53.2154 205.5180 0001314  99.4864 260.6276 15.08838985 65239,6917.883,95.438,540.658,538.839,0.0
54774.0,STARLINK-5454,PAYLOAD,2024-02-07 18:52:26,15.08845523,0.0001228,53.2157,204.6265,89.9779,270.1354,-8.3073e-06,-4.2e-06,0.0,0 STARLINK-5454,1 54774U 22175S   24038.78641770 -.00000420  00000-0 -83073-5 0  9995,2 54774  53.2157 204.6265 0001228  89.9779 270.1354 15.08845523 63102,6917.864,95.437,540.578,538.879,0.0
54774.0,STARLINK-5454,PAYLOAD,2024-02-07 20:27:49,15.08846672,0.0001242,53.2158,204.3292,89.8167,270.2968,1.76e-06,-2.6e-06,0.0,0 STARLINK-5454,1 54774U 22175S   24038.85265641 -.00000260  00000-0  17600-5 0  9996,2 54774  53.2158 204.3292 0001242  89.8167 270.2968 15.08846672 65274,6917.86,95.437,540.584,538.866,0.0
54774.0,STARLINK-5454,PAYLOAD,2024-02-08 10:46:18,15.08829535,0.0001273,53.2157,201.6528,88.8997,271.2141,-9.6948e-06,-4.42e-06,0.0,0 STARLINK-5454,1 54774U 22175S   24039.44882821 -.00000442  00000-0 -96948-5 0  9992,2 54774  53.2157 201.6528 0001273  88.8997 271.2141 15.08829535 63203,6917.912,95.438,540.658,538.897,0.0
54774.0,STARLINK-5454,PAYLOAD,2024-02-08 13:57:04,15.08835362,0.0001355,53.2157,201.0585,86.627,273.4877,-7.2428e-06,-4.03e-06,0.0,0 STARLINK-5454,1 54774U 22175S   24039.58130544 -.00000403  00000-0 -72428-5 0  9999,2 54774  53.2157 201.0585 0001355  86.6270 273.4877 15.08835362 65387,6917.895,95.438,540.697,538.822,0.0
54774.0,STARLINK-5454,PAYLOAD,2024-02-08 18:43:13,15.0884069,0.0001312,53.216,200.1667,85.2514,274.8628,2.9389e-05,1.8e-06,0.0,0 STARLINK-5454,1 54774U 22175S   24039.78002099  .00000180  00000-0  29389-4 0  9991,2 54774  53.2160 200.1667 0001312  85.2514 274.8628 15.08840690 63254,6917.878,95.438,540.651,538.836,0.0
54774.0,STARLINK-5454,PAYLOAD,2024-02-08 21:53:59,15.08845505,0.0001308,53.216,199.5718,84.9382,275.1759,5.0085e-05,5.09e-06,0.0,0 STARLINK-5454,1 54774U 22175S   24039.91249701  .00000509  00000-0  50085-4 0  9991,2 54774  53.2160 199.5718 0001308  84.9382 275.1759 15.08845505 65437,6917.864,95.437,540.633,538.824,0.0
54774.0,STARLINK-5454,PAYLOAD,2024-02-09 10:37:06,15.08823297,0.0001293,53.2159,197.1925,96.1385,263.9755,-1.225e-05,-4.83e-06,0.0,0 STARLINK-5454,1 54774U 22175S   24040.44243452 -.00000483  00000-0 -12250-4 0  9993,2 54774  53.2159 197.1925 0001293  96.1385 263.9755 15.08823297 63354,6917.931,95.439,540.691,538.902,0.0
54774.0,STARLINK-5454,PAYLOAD,2024-02-09 13:47:52,15.08828581,0.0001263,53.2159,196.598,89.994,270.1197,-2.1511e-05,-6.3e-06,0.0,0 STARLINK-5454,1 54774U 22175S   24040.57491288 -.00000630  00000-0 -21511-4 0  9993,2 54774  53.2159 196.5980 0001263  89.9940 270.1197 15.08828581 65535,6917.915,95.438,540.654,538.907,0.0
54774.0,STARLINK-5454,PAYLOAD,2024-02-09 18:34:01,15.08835624,0.0001286,53.2161,195.7066,89.1683,270.9457,-2.0509e-06,-3.21e-06,0.0,0 STARLINK-5454,1 54774U 22175S   24040.77362912 -.00000321  00000-0 -20509-5 0  9990,2 54774  53.2161 195.7066 0001286  89.1683 270.9457 15.08835624 63402,6917.894,95.438,540.648,538.869,0.0
54774.0,STARLINK-5454,PAYLOAD,2024-02-10 13:38:38,15.08841921,0.000128,53.2161,192.1382,85.8345,274.2793,0.00012841,1.756e-05,0.0,0 STARLINK-5454,1 54774U 22175S   24041.56850322  .00001756  00000-0  12841-3 0  9994,2 54774  53.2161 192.1382 0001280  85.8345 274.2793 15.08841921 65685,6917.875,95.437,540.625,538.854,0.0
